[{"OBJECT_NAME":"NUSAT-33 (ALBANIA-2)","OBJECT_ID":"2023-001AQ","EPOCH":"2026-03-09T22:33:27.663264","MEAN_MOTION":15.26923259,"ECCENTRICITY":0.00076854,"INCLINATION":97.3178,"RA_OF_ASC_NODE":131.8399,"ARG_OF_PERICENTER":52.546,"MEAN_ANOMALY":307.6477,"EPHEMERIS_TYPE":0,"CLASSIFICATION_TYPE":"U","NORAD_CAT_ID":55047,"ELEMENT_SET_NO":999,"REV_AT_EPOCH":17716,"BSTAR":0.0004947656,"MEAN_MOTION_DOT":0.00013029,"MEAN_MOTION_DDOT":0},{"OBJECT_NAME":"STARLINK-35879","OBJECT_ID":"2025-288B","EPOCH":"2026-03-09T06:40:59.838240","MEAN_MOTION":15.27572678,"ECCENTRICITY":0.00017249,"INCLINATION":43.0038,"RA_OF_ASC_NODE":25.854,"ARG_OF_PERICENTER":255.1565,"MEAN_ANOMALY":104.9096,"EPHEMERIS_TYPE":0,"CLASSIFICATION_TYPE":"U","NORAD_CAT_ID":66960,"ELEMENT_SET_NO":999,"REV_AT_EPOCH":1522,"BSTAR":0.0012164535,"MEAN_MOTION_DOT":0.00033356,"MEAN_MOTION_DDOT":0}]
